STARLINK-35836          
1 66571U 25268Q   26068.15612101  .00040369  00000+0  14684-2 0  9993
2 66571  43.0058 350.4695 0001791 280.5587  79.5063 15.27581175 17877
2025-313BC              
1 67298U 25313BC  26068.18968176  .00075331  00000+0  26410-2 0  9997
2 67298  97.3985 144.8110 0008478 328.9209  31.1528 15.29126358  7890
